NORAD_CAT_ID,OBJECT_NAME,OBJECT_TYPE,EPOCH,MEAN_MOTION,ECCENTRICITY,INCLINATION,RA_OF_ASC_NODE,ARG_OF_PERICENTER,MEAN_ANOMALY,BSTAR,MEAN_MOTION_DOT,MEAN_MOTION_DDOT,TLE_LINE0,TLE_LINE1,TLE_LINE2,SEMIMAJOR_AXIS,PERIOD,APOGEE,PERIGEE,DECAYED
51777.0,STARLINK-3625,PAYLOAD,2023-11-14 15:27:29,15.08834085,0.0001386,53.2172,177.1391,88.7751,271.34,-8.4076e-06,-4.22e-06,0.0,0 STARLINK-3625,1 51777U 22017K   23318.64409347 -.00000422  00000-0 -84076-5 0  9993,2 51777  53.2172 177.1391 0001386  88.7751 271.3400 15.08834085 96343,6917.898,95.438,540.722,538.805,0.0
51777.0,STARLINK-3625,PAYLOAD,2023-11-14 21:49:01,15.08839473,0.000154,53.2167,175.9498,93.9304,266.1864,2.6541e-05,1.34e-06,0.0,0 STARLINK-3625,1 51777U 22017K   23318.90904849  .00000134  00000-0  26541-4 0  9999,2 51777  53.2167 175.9498 0001540  93.9304 266.1864 15.08839473 94918,6917.882,95.438,540.812,538.682,0.0
51777.0,STARLINK-3625,PAYLOAD,2023-11-15 00:59:48,15.08838118,0.000139,53.2167,175.3556,88.8308,271.2843,1.1055e-05,-1.12e-06,0.0,0 STARLINK-3625,1 51777U 22017K   23319.04153016 -.00000112  00000-0  11055-4 0  9998,2 51777  53.2167 175.3556 0001390  88.8308 271.2843 15.08838118 94938,6917.886,95.438,540.713,538.79,0.0
51777.0,STARLINK-3625,PAYLOAD,2023-11-16 00:50:35,15.08835417,0.0001514,53.2143,170.8956,101.9784,258.1378,0.00011567,1.553e-05,0.0,0 STARLINK-3625,1 51777U 22017K   23320.03512947  .00001553  00000-0  11567-3 0  9997,2 51777  53.2143 170.8956 0001514 101.9784 258.1378 15.08835417 95082,6917.894,95.438,540.807,538.712,0.0
51777.0,STARLINK-3625,PAYLOAD,2023-11-17 07:02:53,15.08852642,0.0001217,53.218,165.2443,80.2465,279.8664,0.00018096,2.594e-05,0.0,0 STARLINK-3625,1 51777U 22017K   23321.29367342  .00002594  00000-0  18096-3 0  9993,2 51777  53.2180 165.2443 0001217  80.2465 279.8664 15.08852642 96748,6917.842,95.437,540.549,538.865,0.0
51777.0,STARLINK-3625,PAYLOAD,2023-11-17 13:24:26,15.08852048,0.0003625,53.2082,164.0578,79.8369,280.3032,0.00018547,2.665e-05,0.0,0 STARLINK-3625,1 51777U 22017K   23321.55864195  .00002665  00000-0  18547-3 0  9990,2 51777  53.2082 164.0578 0003625  79.8369 280.3032 15.08852048 95315,6917.844,95.437,542.216,537.201,0.0
51777.0,STARLINK-3625,PAYLOAD,2023-11-18 06:53:43,15.08830828,0.000222,53.216,160.7877,80.1192,280.005,-0.00018107,-3.168e-05,0.0,0 STARLINK-3625,1 51777U 22017K   23322.28730329 -.00003168  00000-0 -18107-3 0  9995,2 51777  53.2160 160.7877 0002220  80.1192 280.0050 15.08830828 96899,6917.908,95.438,541.309,538.238,0.0
51777.0,STARLINK-3625,PAYLOAD,2023-11-18 13:15:09,15.08992936,0.0002343,53.2154,159.5954,65.2503,294.8732,-0.002441,-0.00039091,0.0,0 STARLINK-3625,1 51777U 22017K   23322.55219225 -.00039091  00000-0 -24410-2 0  9999,2 51777  53.2154 159.5954 0002343  65.2503 294.8732 15.08992936 95461,6917.413,95.428,540.899,537.657,0.0
51777.0,STARLINK-3625,PAYLOAD,2023-11-18 19:36:47,15.08819429,0.0001359,53.2155,158.4066,86.4582,273.6566,9.8399e-05,1.278e-05,0.0,0 STARLINK-3625,1 51777U 22017K   23322.81721589  .00001278  00000-0  98399-4 0  9992,2 51777  53.2155 158.4066 0001359  86.4582 273.6566 15.08819429 95502,6917.943,95.439,540.748,538.868,0.0
51777.0,STARLINK-3625,PAYLOAD,2023-11-19 06:44:29,15.08824001,0.0001527,53.216,156.3248,86.5503,273.5663,0.000124,1.685e-05,0.0,0 STARLINK-3625,1 51777U 22017K   23323.28089854  .00001685  00000-0  12400-3 0  9996,2 51777  53.2160 156.3248 0001527  86.5503 273.5663 15.08824001 97048,6917.929,95.439,540.851,538.738,0.0
51777.0,STARLINK-3625,PAYLOAD,2023-11-19 13:06:02,15.08825983,0.0001489,53.2158,155.1352,86.8704,273.2458,0.00013282,1.826e-05,0.0,0 STARLINK-3625,1 51777U 22017K   23323.54585978  .00001826  00000-0  13282-3 0  9999,2 51777  53.2158 155.1352 0001489  86.8704 273.2458 15.08825983 95611,6917.923,95.438,540.818,538.758,0.0
51777.0,STARLINK-3625,PAYLOAD,2023-11-19 19:27:34,15.08829624,0.000152,53.216,153.9452,89.2966,270.82,0.00014011,1.942e-05,0.0,0 STARLINK-3625,1 51777U 22017K   23323.81082035  .00001942  00000-0  14011-3 0  9995,2 51777  53.2160 153.9452 0001520  89.2966 270.8200 15.08829624 95652,6917.912,95.438,540.829,538.726,0.0
51777.0,STARLINK-3625,PAYLOAD,2023-11-20 12:56:49,15.08836874,0.0001517,53.2158,150.6742,89.3793,270.7373,0.0001448,2.017e-05,0.0,0 STARLINK-3625,1 51777U 22017K   23324.53946077  .00002017  00000-0  14480-3 0  9994,2 51777  53.2158 150.6742 0001517  89.3793 270.7373 15.08836874 95767,6917.89,95.438,540.804,538.706,0.0
51777.0,STARLINK-3625,PAYLOAD,2023-11-20 19:18:21,15.08840133,0.0001515,53.2159,149.4849,88.7511,271.3655,0.00017342,2.473e-05,0.0,0 STARLINK-3625,1 51777U 22017K   23324.80442000  .00002473  00000-0  17342-3 0  9997,2 51777  53.2159 149.4849 0001515  88.7511 271.3655 15.08840133 97272,6917.88,95.438,540.793,538.697,0.0
51777.0,STARLINK-3625,PAYLOAD,2023-11-21 12:47:36,15.08849991,0.0001547,53.2152,146.2138,87.7507,272.3663,0.00023384,3.437e-05,0.0,0 STARLINK-3625,1 51777U 22017K   23325.53305670  .00003437  00000-0  23384-3 0  9993,2 51777  53.2152 146.2138 0001547  87.7507 272.3663 15.08849991 95910,6917.85,95.437,540.785,538.645,0.0
51777.0,STARLINK-3625,PAYLOAD,2023-11-21 17:33:45,15.08853481,0.0001547,53.2153,145.3217,87.6312,272.4858,0.0002647,3.929e-05,0.0,0 STARLINK-3625,1 51777U 22017K   23325.73177412  .00003929  00000-0  26470-3 0  9991,2 51777  53.2153 145.3217 0001547  87.6312 272.4858 15.08853481 95941,6917.839,95.437,540.774,538.634,0.0
51777.0,STARLINK-3625,PAYLOAD,2023-11-22 17:24:31,15.0885623,0.00016,53.2153,140.861,86.5868,273.5307,0.00018687,2.689e-05,0.0,0 STARLINK-3625,1 51777U 22017K   23326.72536772  .00002689  00000-0  18687-3 0  9992,2 51777  53.2153 140.8610 0001600  86.5868 273.5307 15.08856230 97568,6917.831,95.437,540.803,538.589,0.0
51777.0,STARLINK-3625,PAYLOAD,2023-11-23 18:50:42,15.08832487,0.0001502,53.2149,136.1021,119.9241,240.19,-0.00018642,-3.253e-05,0.0,0 STARLINK-3625,1 51777U 22017K   23327.78521524 -.00003253  00000-0 -18642-3 0  9999,2 51777  53.2149 136.1021 0001502 119.9241 240.1900 15.08832487 97729,6917.903,95.438,540.807,538.729,0.0
51777.0,STARLINK-3625,PAYLOAD,2023-11-23 20:26:05,15.08829034,0.0001391,53.2148,135.8055,109.5019,250.6124,-0.00020487,-3.546e-05,0.0,0 STARLINK-3625,1 51777U 22017K   23327.85145830 -.00003546  00000-0 -20487-3 0  9994,2 51777  53.2148 135.8055 0001391 109.5019 250.6124 15.08829034 96261,6917.914,95.438,540.741,538.817,0.0
51777.0,STARLINK-3625,PAYLOAD,2023-11-24 10:44:35,15.08805713,0.0001635,53.2145,133.1269,117.8174,242.2984,0.00037864,5.738e-05,0.0,0 STARLINK-3625,1 51777U 22017K   23328.44763285  .00005738  00000-0  37864-3 0  9990,2 51777  53.2145 133.1269 0001635 117.8174 242.2984 15.08805713 97823,6917.985,95.44,540.981,538.719,0.0
51777.0,STARLINK-3625,PAYLOAD,2023-11-24 18:41:31,15.08795252,0.0001836,53.2166,131.6426,108.6449,251.4743,0.00058696,9.054e-05,0.0,0 STARLINK-3625,1 51777U 22017K   23328.77883723  .00009054  00000-0  58696-3 0  9997,2 51777  53.2166 131.6426 0001836 108.6449 251.4743 15.08795252 96404,6918.017,95.44,541.152,538.612,0.0
51777.0,STARLINK-3625,PAYLOAD,2023-11-24 21:52:16,15.08847559,0.0001388,53.2167,131.0473,103.5606,256.5541,-9.5748e-05,-1.812e-05,0.0,0 STARLINK-3625,1 51777U 22017K   23328.91130162 -.00001812  00000-0 -95748-4 0  9991,2 51777  53.2167 131.0473 0001388 103.5606 256.5541 15.08847559 97896,6917.857,95.437,540.682,538.762,0.0
51777.0,STARLINK-3625,PAYLOAD,2023-11-25 20:07:40,15.08856379,0.0001403,53.2153,126.8837,101.3462,258.7687,0.00060333,9.331e-05,0.0,0 STARLINK-3625,1 51777U 22017K   23329.83866110  .00009331  00000-0  60333-3 0  9995,2 51777  53.2153 126.8837 0001403 101.3462 258.7687 15.08856379 96569,6917.83,95.437,540.666,538.725,0.0
51777.0,STARLINK-3625,PAYLOAD,2023-11-26 16:47:40,15.08861271,0.0001412,53.2146,123.017,100.5633,259.5518,0.00035513,5.372e-05,0.0,0 STARLINK-3625,1 51777U 22017K   23330.69977335  .00005372  00000-0  35513-3 0  9996,2 51777  53.2146 123.0170 0001412 100.5633 259.5518 15.08861271 98168,6917.815,95.436,540.657,538.704,0.0
51777.0,STARLINK-3625,PAYLOAD,2023-11-27 10:16:54,15.08847302,0.0001546,53.216,119.7426,105.4901,254.6262,-4.3979e-05,-9.88e-06,0.0,0 STARLINK-3625,1 51777U 22017K   23331.42841285 -.00000988  00000-0 -43979-4 0  9998,2 51777  53.2160 119.7426 0001546 105.4901 254.6262 15.08847302 98273,6917.858,95.437,540.793,538.654,0.0
51777.0,STARLINK-3625,PAYLOAD,2023-11-27 13:27:41,15.08847002,0.0001481,53.2162,119.1469,107.7801,252.3353,-1.6767e-05,-5.55e-06,0.0,0 STARLINK-3625,1 51777U 22017K   23331.56089268 -.00000555  00000-0 -16767-4 0  9993,2 51777  53.2162 119.1469 0001481 107.7801 252.3353 15.08847002 96820,6917.859,95.437,540.749,538.699,0.0
51777.0,STARLINK-3625,PAYLOAD,2023-11-27 16:38:27,15.08841863,0.0001593,53.2157,118.553,119.3572,240.7579,-0.00012315,-2.248e-05,0.0,0 STARLINK-3625,1 51777U 22017K   23331.69337296 -.00002248  00000-0 -12315-3 0  9999,2 51777  53.2157 118.5530 0001593 119.3572 240.7579 15.08841863 96846,6917.875,95.437,540.842,538.638,0.0
51777.0,STARLINK-3625,PAYLOAD,2023-11-28 10:07:42,15.08843548,0.0001451,53.2164,115.2837,104.7516,255.3637,-0.00021364,-3.687e-05,0.0,0 STARLINK-3625,1 51777U 22017K   23332.42201392 -.00003687  00000-0 -21364-3 0  9990,2 51777  53.2164 115.2837 0001451 104.7516 255.3637 15.08843548 98422,6917.87,95.437,540.738,538.731,0.0
51777.0,STARLINK-3625,PAYLOAD,2023-11-28 13:18:28,15.08848322,0.0001437,53.217,114.6915,103.6984,256.4168,-6.4728e-05,-1.318e-05,0.0,0 STARLINK-3625,1 51777U 22017K   23332.55449276 -.00001318  00000-0 -64728-4 0  9990,2 51777  53.2170 114.6915 0001437 103.6984 256.4168 15.08848322 96974,6917.855,95.437,540.714,538.726,0.0
51777.0,STARLINK-3625,PAYLOAD,2023-11-28 16:29:14,15.08849209,0.0001466,53.2173,114.0971,100.3067,259.809,9.5418e-06,-1.36e-06,0.0,0 STARLINK-3625,1 51777U 22017K   23332.68697204 -.00000136  00000-0  95418-5 0  9997,2 51777  53.2173 114.0971 0001466 100.3067 259.8090 15.08849209 96999,6917.852,95.437,540.731,538.703,0.0
